1 14050U 83041A   93108.23651264 -.00000191  00000-0  99999-4 0  8873
2 14050   4.7072  65.8465 0004437 309.2925 191.4457  1.00312421  8524
1 14050U          93108.23651264 -.00000191  00000+0  99999-4 0  8876
2 14050   4.7072  65.8465 0004437 309.2925 191.4457  1.00312421  8524
1 14050U 83041A   93109.21003079  .00000318      0+0  00000-4 0 88802
2 14050   4.7094  65.8363 0004430 309.2940 183.0210  1.00312184  8536
1 14050U 83041A   93109.21003110 -.00000192  00000-0  99999-4 0  8885
2 14050   4.7094  65.8364 0004430 309.2941 183.0210  1.00312183  8537
1 14050U 83041A   93111.22174962  .00000321      0+0  00000-4 0 88901
2 14050   4.7138  65.8133 0004429 309.3492 189.4800  1.00311706  8557
1 14050U 83041A   93111.22174993 -.00000193  00000-0  99999-4 0  8899
2 14050   4.7138  65.8134 0004429 309.3493 189.4800  1.00311705  8558
1 14050U 83041A   93115.28591518 -.00000196  00000-0  99999-4 0  8900
2 14050   4.7227  65.7701 0004429 309.5244 217.0306  1.00310765  8590
1 14050U 83041A   93115.28591519  .00000229      0+0  00000-4 0 92904
2 14050   4.7227  65.7700 0004429 309.5244 217.0306  1.00310765  8599
1 14050U 83041A   93115.73533068  .00000341      0+0  00000-4 0 93006
2 14050   4.7244  65.7719 0004405 308.0592  20.7921  1.00310672  8603
1 14050U 83041A   93115.73533099 -.00000196  00000-0  99999-4 0  8911
2 14050   4.7244  65.7720 0004405 308.0593  20.7921  1.00310672  8606
1 14050U 83041A   93119.16753501 -.00000198  00000-0  99999-4 0  8927
2 14050   4.7319  65.7309 0004411 307.7377 180.6020  1.00309788  8630
1 14050U 83041A   93119.16753534  .00000310      0+0  00000-4 0 89202
2 14050   4.7319  65.7308 0004411 307.7376 180.6020  1.00309788  8638
1 14050U 83041A   93122.21434431  .00000307      0+0  00000-4 0 93306
2 14050   4.7400  65.6803 0004425 307.3426 201.3076  1.00308950  8660
1 14050U 83041A   93122.21434462 -.00000200  00000-0  99999-4 0  8934
2 14050   4.7400  65.6804 0004425 307.3427 201.3076  1.00308949  8660
1 14050U 83041A   93127.33797808 0.00000030  00000+0  00000-4 0  8954
2 14050   4.7503  65.6441 0004915 312.6656 246.2343  1.00307515  8728
1 14050U 83041A   93127.33797839 -.00000203  00000-0  99999-4 0  8946
2 14050   4.7503  65.6442 0004915 312.6657 246.2343  1.00307514  8729
1 14050U 83041A   93127.33797839 -.00000203  00000-0  99999-4 0  8957
2 14050   4.7503  65.6442 0004915 312.6657 246.2343  1.00307514  8729
1 14050U 83041A   93130.17453237 0.00000318  00000+0  00000-4 0  8965
2 14050   4.7565  65.6090 0004895 312.4973 190.7476  1.00306710  8741
1 14050U 83041A   93130.17453300 -.00000204  00000-0  99999-4 0  8967
2 14050   4.7565  65.6091 0004895 312.4974 190.7476  1.00306710  8743
1 14050U 83041A   93131.06314713 0.00000173  00000+0  00000-4 0  8979
2 14050   4.7594  65.5994 0004608 314.1114 150.0317  1.00306507  8751
1 14050U          93131.06314775 -.00000205  00000+0  99999-4 0  8973
2 14050   4.7594  65.5995 0004608 314.1115 150.0317  1.00306507  8753
1 14050U 83041A   93131.06314776 -.00000205  00000-0  99999-4 0  8971
2 14050   4.7594  65.5995 0004608 314.1115 150.0317  1.00306507  8753
1 14050U 83041A   93133.21782419 -.00000206  00000-0  99999-4 0  8985
2 14050   4.7641  65.5665 0004602 314.0344 208.2138  1.00305923  8777
1 14050U 83041A   93133.21782484 0.00000254  00000+0  00000-4 0  9377
2 14050   4.7641  65.5664 0004602 314.0343 208.2138  1.00305923  8775
1 14050U 83041A   93137.24208718 -.00000208  00000-0  99999-4 0  8990
2 14050   4.7727  65.5112 0004578 313.9567 221.5307  1.00304828  8810
1 14050U 83041A   93137.24208783 0.00000179  00000+0  00000-4 0  9397
2 14050   4.7727  65.5111 0004578 313.9566 221.5307  1.00304828  8818
1 14050U 83041A   93138.20195733 0.00000256  00000+0  00000-4 0  9402
2 14050   4.7748  65.4939 0004569 313.8643 208.2528  1.00304568  8822
1 14050U 83041A   93138.29603676 0.00000048  00000+0  00000-4 0  9422
2 14050   4.7762  65.4718 0004568 313.8855 242.2296  1.00304592  8835
1 14050U          93138.29603738 -.00000208  00000+0  99999-4 0  9003
2 14050   4.7762  65.4718 0004568 313.8856 242.2296  1.00304591  8835
1 14050U 83041A   93138.29603739 -.00000208  00000-0  99999-4 0  9001
2 14050   4.7762  65.4718 0004568 313.8856 242.2296  1.00304591  8835
1 14050U 83041A   93140.29044593 -.00000209  00000-0  99999-4 0  9013
2 14050   4.7804  65.4496 0004569 313.9638 242.3589  1.00304050  8853
1 14050U 83041A   93140.29044593 -.00000209  00000-0  99999-4 0  9024
2 14050   4.7804  65.4496 0004569 313.9638 242.3589  1.00304050  8853
1 14050U 83041A   93140.29044594 0.00000047  00000+0  00000-4 0  9433
2 14050   4.7804  65.4495 0004569 313.9638 242.3589  1.00304051  8853
1 14050U 83041A   93142.21341640 -.00000210  00000-0  99999-4 0  9034
2 14050   4.7846  65.4258 0004560 313.9643 216.7664  1.00303509  8860
1 14050U 83041A   93142.21341705 0.00000209  00000+0  00000-4 0  9453
2 14050   4.7846  65.4257 0004560 313.9642 216.7664  1.00303510  8860
1 14050U 83041A   93145.21664970 -.00000211  00000-0  99999-4 0  9043
2 14050   4.7911  65.3908 0004542 314.0327 221.1913  1.00302644  8894
1 14050U 83041A   93145.21665034 0.00000182  00000+0  00000-4 0  9045
2 14050   4.7911  65.3907 0004542 314.0326 221.1913  1.00302645  8893
1 14050U          93149.84314442 -.00000213  00000+0  99999-4 0  9058
2 14050   4.8005  65.3328 0003981 318.4564  87.4022  1.00301162  8946
1 14050U 83041A   93149.84314442 -.00000213  00000-0  99999-4 0  9055
2 14050   4.8005  65.3328 0003981 318.4564  87.4022  1.00301162  8946
1 14050U 83041A   93150.27113147 -.00000213  00000-0  99999-4 0  9064
2 14050   4.8011  65.3354 0004058 318.7668 241.6297  1.00301016  8953
1 14050U 83041A   93150.27113148 0.00000025  00000+0  00000-4 0  9496
2 14050   4.8011  65.3353 0004058 318.7668 241.6297  1.00301016  8952
1 14050U 83041A   93153.20658142 0.00000150  00000+0  00000-4 0  9501
2 14050   4.8060  65.2913 0003504 322.8799 217.5181  1.00300139  8985
1 14050U 83041A   93153.20658205 -.00000214  00000-0  99999-4 0  9071
2 14050   4.8060  65.2914 0003504 322.8800 217.5181  1.00300139  8989
1 14050U 83041A   93156.37596279 -.00000216  00000-0  99999-4 0  9087
2 14050   4.8169  65.2540 0003454 324.5113 280.3347  1.00299148  9018
1 14050U          93156.37596279 -.00000216  00000+0  99999-4 0  9080
2 14050   4.8169  65.2540 0003454 324.5113 280.3347  1.00299148  9018
1 14050U 83041A   93157.14344290 -.00000216  00000-0  99999-4 0  9098
2 14050   4.8163  65.2446 0003612 323.9968 197.9829  1.00298913  9011
1 14050U          93157.14344291 -.00000216  00000+0  99999-4 0  9092
2 14050   4.8163  65.2446 0003612 323.9968 197.9829  1.00298913  9011
1 14050U 83041A   93157.14344291 0.00000259  00000+0  00000-4 0  9549
2 14050   4.8163  65.2445 0003612 323.9967 197.9829  1.00298914  9010
1 14050U 83041A   93157.61685379 -.00000216  00000-0  99999-4 0  9108
2 14050   4.8181  65.2507 0003869 324.5578   8.3546  1.00298738  9024
1 14050U 83041A   93157.61685444 0.00000338  00000+0  00000-4 0  9558
2 14050   4.8181  65.2506 0003869 324.5577   8.3546  1.00298739  9023
1 14050U 83041A   93161.21900206 -.00000217  00000-0  99999-4 0  9110
2 14050   4.8257  65.2096 0003854 324.7833 228.8356  1.00297713  9065
1 14050U 83041A   93161.21900271 0.00000067  00000+0  00000-4 0  9567
2 14050   4.8257  65.2095 0003854 324.7832 228.8356  1.00297714  9064
1 14050U 83041A   93164.20499575 0.00000078  00000+0  00000-4 0  9572
2 14050   4.8317  65.1768 0003813 325.3034 226.5259  1.00296900  9099
1 14050U          93164.39076334 -.00000218  00000+0  99999-4 0  9123
2 14050   4.8389  65.1682 0003653 324.9957 293.9264  1.00296943  9095
1 14050U 83041A   93164.39076335 -.00000218  00000-0  99999-4 0  9121
2 14050   4.8389  65.1682 0003653 324.9957 293.9264  1.00296943  9095
1 14050U 83041A   93165.21703254 -.00000219  00000-0  99999-4 0  9132
2 14050   4.8386  65.1569 0003577 325.0293 232.2465  1.00296675  9109
1 14050U 83041A   93165.21703319 0.00000045  00000+0  00000-4 0  9134
2 14050   4.8386  65.1568 0003577 325.0292 232.2465  1.00296675  9107
1 14050U 83041A   93168.20426652 0.00000054  00000+0  00000-4 0  9611
2 14050   4.8448  65.1256 0003561 325.2397 230.6788  1.00295816  9130
1 14050U 83041A   93168.45734930 0.00000132  00000+0  00000-4 0  9144
2 14050   4.8501  65.1378 0003632 324.7885 322.4967  1.00295711  9133
1 14050U 83041A   93168.45734992 -.00000220  00000-0  99999-4 0  9147
2 14050   4.8501  65.1379 0003632 324.7886 322.4967  1.00295710  9134
1 14050U 83041A   93172.22257178 -.00000221  00000-0  99999-4 0  9155
2 14050   4.8587  65.0902 0003570 323.5224 243.3130  1.00294557  9178
1 14050U 83041A   93172.22257243 -.00000008  00000+0  00000-4 0  9649
2 14050   4.8587  65.0901 0003570 323.5223 243.3130  1.00294558  9177
1 14050U 83041A   93175.24544975 -.00000222  00000-0  99999-4 0  9166
2 14050   4.8645  65.0619 0003577 323.9098 254.4085  1.00293633  9208
1 14050U 83041A   93175.24545040 -.00000060  00000+0  00000-4 0  9669
2 14050   4.8645  65.0618 0003577 323.9097 254.4085  1.00293634  9207
1 14050U 83041A   93179.34390520 -.00000223  00000-0  99999-4 0  9178
2 14050   4.8691  65.0129 0003621 325.6233 292.5295  1.00292318  9244
1 14050U 83041A   93179.34390520 -.00000223  00000-0  99999-4 0  9189
2 14050   4.8691  65.0129 0003621 325.6233 292.5295  1.00292318  9244
1 14050U 83041A   93179.34390585 -.00000058  00000+0  00000-4 0  9696
2 14050   4.8691  65.0128 0003621 325.6232 292.5295  1.00292318  9242
1 14050U 83041A   93182.16571736 -.00000223  00000-0  99999-4 0  9194
2 14050   4.8751  64.9913 0003798 327.6721 229.3380  1.00291409  9275
1 14050U 83041A   93182.16571736 -.00000223  00000-0  99999-4 0  9206
2 14050   4.8751  64.9913 0003798 327.6721 229.3380  1.00291409  9275
1 14050U 83041A   93182.16571737 0.00000049  00000+0  00000-4 0  9701
2 14050   4.8751  64.9912 0003798 327.6720 229.3380  1.00291409  9273
1 14050U 83041A   93188.17940756 -.00000225  00000-0  99999-4 0  9218
2 14050   4.8880  64.9238 0003793 327.9565 240.3828  1.00289619  9339
